NORAD_CAT_ID,OBJECT_NAME,OBJECT_TYPE,EPOCH,MEAN_MOTION,ECCENTRICITY,INCLINATION,RA_OF_ASC_NODE,ARG_OF_PERICENTER,MEAN_ANOMALY,BSTAR,MEAN_MOTION_DOT,MEAN_MOTION_DDOT,TLE_LINE0,TLE_LINE1,TLE_LINE2,SEMIMAJOR_AXIS,PERIOD,APOGEE,PERIGEE,DECAYED
52880.0,STARLINK-4186,PAYLOAD,2024-06-03 01:41:26,15.08839319,0.0001422,53.2187,27.9316,94.1359,265.9796,1.5555e-05,-4e-07,0.0,0 STARLINK-4186,1 52880U 22062BC  24155.07045120 -.00000040  00000-0  15555-4 0  9991,2 52880  53.2187  27.9316 0001422  94.1359 265.9796 15.08839319109246,6917.882,95.438,540.731,538.764,0.0
52880.0,STARLINK-4186,PAYLOAD,2024-06-04 07:53:46,15.0884175,0.0001127,53.2175,22.2771,85.3757,274.7364,0.00016278,2.304e-05,0.0,0 STARLINK-4186,1 52880U 22062BC  24156.32900990  .00002304  00000-0  16278-3 0  9991,2 52880  53.2175  22.2771 0001127  85.3757 274.7364 15.08841750109434,6917.875,95.437,540.52,538.96,0.0
52880.0,STARLINK-4186,PAYLOAD,2024-06-04 22:12:14,15.08845988,0.000132,53.2163,19.5999,76.3018,283.8121,0.00014692,2.051e-05,0.0,0 STARLINK-4186,1 52880U 22062BC  24156.92516861  .00002051  00000-0  14692-3 0  9994,2 52880  53.2163  19.5999 0001320  76.3018 283.8121 15.08845988109032,6917.862,95.437,540.64,538.814,0.0
52880.0,STARLINK-4186,PAYLOAD,2024-06-05 01:23:00,15.08843914,0.0001121,53.2163,19.0061,80.1498,279.9621,0.00013013,1.784e-05,0.0,0 STARLINK-4186,1 52880U 22062BC  24157.05764941  .00001784  00000-0  13013-3 0  9991,2 52880  53.2163  19.0061 0001121  80.1498 279.9621 15.08843914109051,6917.868,95.437,540.509,538.958,0.0
52880.0,STARLINK-4186,PAYLOAD,2024-06-06 07:35:21,15.08834607,0.0001931,53.2234,13.3581,84.8518,275.2694,5.0185e-05,5.11e-06,0.0,0 STARLINK-4186,1 52880U 22062BC  24158.31622151  .00000511  00000-0  50185-4 0  9996,2 52880  53.2234  13.3581 0001931  84.8518 275.2694 15.08834607109730,6917.897,95.438,541.098,538.426,0.0
52880.0,STARLINK-4186,PAYLOAD,2024-06-06 23:29:11,15.08847758,0.0001287,53.2167,10.382,92.751,267.3629,0.00012989,1.78e-05,0.0,0 STARLINK-4186,1 52880U 22062BC  24158.97860986  .00001780  00000-0  12989-3 0  9996,2 52880  53.2167  10.3820 0001287  92.7510 267.3629 15.08847758109834,6917.857,95.437,540.612,538.831,0.0
52880.0,STARLINK-4186,PAYLOAD,2024-06-07 07:26:08,15.08835369,0.0001826,53.2215,8.8971,88.9304,271.1898,0.00011297,1.51e-05,0.0,0 STARLINK-4186,1 52880U 22062BC  24159.30981867  .00001510  00000-0  11297-3 0  9998,2 52880  53.2215   8.8971 0001826  88.9304 271.1898 15.08835369109885,6917.895,95.438,541.023,538.496,0.0
52880.0,STARLINK-4186,PAYLOAD,2024-06-07 20:09:13,15.08841795,0.0001157,53.2191,6.5197,88.934,271.1785,6.3192e-05,7.18e-06,0.0,0 STARLINK-4186,1 52880U 22062BC  24159.83973559  .00000718  00000-0  63192-4 0  9996,2 52880  53.2191   6.5197 0001157  88.9340 271.1785 15.08841795109470,6917.875,95.437,540.54,538.94,0.0
52880.0,STARLINK-4186,PAYLOAD,2024-06-07 23:19:59,15.0885758,0.0001189,53.2112,5.9241,92.8047,267.3081,-7.9832e-05,-1.559e-05,0.0,0 STARLINK-4186,1 52880U 22062BC  24159.97221347 -.00001559  00000-0 -79832-4 0  9996,2 52880  53.2112   5.9241 0001189  92.8047 267.3081 15.08857580109980,6917.827,95.436,540.514,538.869,0.0
52880.0,STARLINK-4186,PAYLOAD,2024-06-08 07:16:54,15.08847206,0.0001388,53.2072,4.437,94.1062,266.0089,-0.00010107,-1.896e-05,0.0,0 STARLINK-4186,1 52880U 22062BC  24160.30341326 -.00001896  00000-0 -10107-3 0  9998,2 52880  53.2072   4.4370 0001388  94.1062 266.0089 15.08847206109545,6917.858,95.437,540.684,538.763,0.0
52880.0,STARLINK-4186,PAYLOAD,2024-06-08 19:59:59,15.08848873,0.0001383,53.2097,2.0583,87.4387,272.6763,-1.4676e-05,-5.22e-06,0.0,0 STARLINK-4186,1 52880U 22062BC  24160.83333064 -.00000522  00000-0 -14676-4 0  9997,2 52880  53.2097   2.0583 0001383  87.4387 272.6763 15.08848873110110,6917.853,95.437,540.675,538.762,0.0
52880.0,STARLINK-4186,PAYLOAD,2024-06-08 21:35:23,15.08843456,0.0001324,53.2147,1.7602,94.6946,265.4197,0.00016785,2.385e-05,0.0,0 STARLINK-4186,1 52880U 22062BC  24160.89957368  .00002385  00000-0  16785-3 0  9991,2 52880  53.2147   1.7602 0001324  94.6946 265.4197 15.08843456109638,6917.87,95.437,540.651,538.819,0.0
52880.0,STARLINK-4186,PAYLOAD,2024-06-09 13:29:15,15.08831775,0.0001417,53.214,358.7874,90.728,269.3874,-3.5901e-05,-8.59e-06,0.0,0 STARLINK-4186,1 52880U 22062BC  24161.56198235 -.00000859  00000-0 -35901-4 0  9994,2 52880  53.2140 358.7874 0001417  90.7280 269.3874 15.08831775110221,6917.906,95.438,540.751,538.79,0.0
52880.0,STARLINK-4186,PAYLOAD,2024-06-09 19:50:48,15.08832311,0.0001429,53.2148,357.5974,95.3235,264.7921,-8.9978e-06,-4.31e-06,0.0,0 STARLINK-4186,1 52880U 22062BC  24161.82694522 -.00000431  00000-0 -89978-5 0  9993,2 52880  53.2148 357.5974 0001429  95.3235 264.7921 15.08832311109778,6917.904,95.438,540.757,538.78,0.0
52880.0,STARLINK-4186,PAYLOAD,2024-06-10 11:44:39,15.08825244,0.0001347,53.2154,354.6235,93.642,266.4727,0.00018013,2.579e-05,0.0,0 STARLINK-4186,1 52880U 22062BC  24162.48934851  .00002579  00000-0  18013-3 0  9991,2 52880  53.2154 354.6235 0001347  93.6420 266.4727 15.08825244109870,6917.925,95.438,540.722,538.859,0.0
52880.0,STARLINK-4186,PAYLOAD,2024-06-10 19:41:34,15.08842488,0.0001436,53.219,353.1399,99.729,260.3865,0.00012048,1.63e-05,0.0,0 STARLINK-4186,1 52880U 22062BC  24162.82053737  .00001630  00000-0  12048-3 0  9993,2 52880  53.2190 353.1399 0001436  99.7290 260.3865 15.08842488110413,6917.873,95.437,540.731,538.744,0.0
52880.0,STARLINK-4186,PAYLOAD,2024-06-11 05:13:52,15.08867773,8.24e-05,53.2197,351.357,88.8192,271.2894,-0.00025177,-4.295e-05,0.0,0 STARLINK-4186,1 52880U 22062BC  24163.21796568 -.00004295  00000-0 -25177-3 0  9992,2 52880  53.2197 351.3570 0000824  88.8192 271.2894 15.08867773110474,6917.795,95.436,540.231,539.09,0.0
52880.0,STARLINK-4186,PAYLOAD,2024-06-11 21:07:44,15.08840299,0.0001273,53.22,348.3838,92.0518,268.062,0.00011949,1.614e-05,0.0,0 STARLINK-4186,1 52880U 22062BC  24163.88038058  .00001614  00000-0  11949-3 0  9990,2 52880  53.2200 348.3838 0001273  92.0518 268.0620 15.08840299110576,6917.879,95.438,540.625,538.864,0.0
52880.0,STARLINK-4186,PAYLOAD,2024-06-12 11:26:13,15.08839364,0.0001271,53.2188,345.706,90.3974,269.7164,-9.3682e-05,-1.778e-05,0.0,0 STARLINK-4186,1 52880U 22062BC  24164.47655052 -.00001778  00000-0 -93682-4 0  9993,2 52880  53.2188 345.7060 0001271  90.3974 269.7164 15.08839364110666,6917.882,95.438,540.627,538.868,0.0
52880.0,STARLINK-4186,PAYLOAD,2024-06-12 20:58:32,15.08837812,0.0001495,53.2203,343.923,94.9603,265.156,-5.012e-06,-3.68e-06,0.0,0 STARLINK-4186,1 52880U 22062BC  24164.87398945 -.00000368  00000-0 -50120-5 0  9997,2 52880  53.2203 343.9230 0001495  94.9603 265.1560 15.08837812110239,6917.887,95.438,540.786,538.718,0.0
52880.0,STARLINK-4186,PAYLOAD,2024-06-13 11:17:00,15.0883953,0.0001216,53.2187,341.2458,91.3315,268.7816,0.00010348,1.359e-05,0.0,0 STARLINK-4186,1 52880U 22062BC  24165.47014494  .00001359  00000-0  10348-3 0  9993,2 52880  53.2187 341.2458 0001216  91.3315 268.7816 15.08839530110327,6917.882,95.438,540.588,538.906,0.0
52880.0,STARLINK-4186,PAYLOAD,2024-06-13 19:13:55,15.08850593,0.0001225,53.2188,339.7583,87.7961,272.3171,9.8319e-05,1.278e-05,0.0,0 STARLINK-4186,1 52880U 22062BC  24165.80133823  .00001278  00000-0  98319-4 0  9993,2 52880  53.2188 339.7583 0001225  87.7961 272.3171 15.08850593110377,6917.848,95.437,540.56,538.866,0.0
52880.0,STARLINK-4186,PAYLOAD,2024-06-14 11:07:45,15.08864621,0.0001236,53.2191,336.7836,91.3154,268.798,0.0002986,4.471e-05,0.0,0 STARLINK-4186,1 52880U 22062BC  24166.46372137  .00004471  00000-0  29860-3 0  9991,2 52880  53.2191 336.7836 0001236  91.3154 268.7980 15.08864621110471,6917.805,95.436,540.525,538.815,0.0
52880.0,STARLINK-4186,PAYLOAD,2024-06-14 20:40:05,15.08835037,0.0001408,53.2184,335.0,85.8323,274.283,-8.2506e-05,-1.601e-05,0.0,0 STARLINK-4186,1 52880U 22062BC  24166.86118054 -.00001601  00000-0 -82506-4 0  9992,2 52880  53.2184 335.0000 0001408  85.8323 274.2830 15.08835037110537,6917.896,95.438,540.735,538.787,0.0
52880.0,STARLINK-4186,PAYLOAD,2024-06-15 04:37:01,15.08834662,0.0001426,53.2184,333.5136,86.051,274.0645,-8.3783e-05,-1.621e-05,0.0,0 STARLINK-4186,1 52880U 22062BC  24167.19238191 -.00001621  00000-0 -83783-4 0  9994,2 52880  53.2184 333.5136 0001426  86.0510 274.0645 15.08834662110581,6917.897,95.438,540.748,538.775,0.0
52880.0,STARLINK-4186,PAYLOAD,2024-06-15 17:20:06,15.08842516,0.0001458,53.2176,331.1336,88.8237,271.2922,1.2365e-05,-9.1e-07,0.0,0 STARLINK-4186,1 52880U 22062BC  24167.72229777 -.00000091  00000-0  12365-4 0  9990,2 52880  53.2176 331.1336 0001458  88.8237 271.2922 15.08842516110662,6917.873,95.437,540.746,538.729,0.0
52880.0,STARLINK-4186,PAYLOAD,2024-06-16 14:00:07,15.08838525,0.0001673,53.218,327.2674,89.916,270.2024,0.00024725,3.649e-05,0.0,0 STARLINK-4186,1 52880U 22062BC  24168.58342282  .00003649  00000-0  24725-3 0  9995,2 52880  53.2180 327.2674 0001673  89.9160 270.2024 15.08838525110795,6917.885,95.438,540.907,538.593,0.0
52880.0,STARLINK-4186,PAYLOAD,2024-06-16 20:21:40,15.08844149,0.0001528,53.2182,326.0767,98.0086,262.108,0.00042955,6.556e-05,0.0,0 STARLINK-4186,1 52880U 22062BC  24168.84838181  .00006556  00000-0  42955-3 0  9997,2 52880  53.2182 326.0767 0001528  98.0086 262.1080 15.08844149110830,6917.868,95.437,540.79,538.676,0.0
52880.0,STARLINK-4186,PAYLOAD,2024-06-17 17:01:41,15.08843887,0.000217,53.2179,322.2116,89.766,270.358,0.00026061,3.862e-05,0.0,0 STARLINK-4186,1 52880U 22062BC  24169.70950514  .00003862  00000-0  26061-3 0  9995,2 52880  53.2179 322.2116 0002170  89.7660 270.3580 15.08843887111454,6917.869,95.437,541.235,538.232,0.0
52880.0,STARLINK-4186,PAYLOAD,2024-06-18 13:41:42,15.08840905,0.0001325,53.2175,318.3448,80.6401,279.4741,0.00017117,2.437e-05,0.0,0 STARLINK-4186,1 52880U 22062BC  24170.57062766  .00002437  00000-0  17117-3 0  9994,2 52880  53.2175 318.3448 0001325  80.6401 279.4741 15.08840905111589,6917.878,95.437,540.659,538.826,0.0
